CCSDS_OMM_VERS = 2.0
CREATION_DATE  = 
ORIGINATOR     = 

OBJECT_NAME    = ATLAS CENTAUR R/B
OBJECT_ID      = 1972-065B
CENTER_NAME    = EARTH
REF_FRAME      = TEME
TIME_SYSTEM    = UTC
MEAN_ELEMENT_THEORY = SGP/SGP4

EPOCH          = 2025-12-18T12:56:20.895072
MEAN_MOTION    = 14.77424657
ECCENTRICITY   = .00334098
INCLINATION    = 35.0020
RA_OF_ASC_NODE = 61.2254
ARG_OF_PERICENTER = 46.8895
MEAN_ANOMALY   = 313.4593

EPHEMERIS_TYPE = 0
CLASSIFICATION_TYPE = U
NORAD_CAT_ID   = 6155
ELEMENT_SET_NO = 999
REV_AT_EPOCH   = 82925
BSTAR          = .13961476E-3
MEAN_MOTION_DOT = .994E-5
MEAN_MOTION_DDOT = 0

CCSDS_OMM_VERS = 2.0
CREATION_DATE  = 
ORIGINATOR     = 

OBJECT_NAME    = SL-8 R/B
OBJECT_ID      = 1975-112B
CENTER_NAME    = EARTH
REF_FRAME      = TEME
TIME_SYSTEM    = UTC
MEAN_ELEMENT_THEORY = SGP/SGP4

EPOCH          = 2025-12-18T14:30:03.693024
MEAN_MOTION    = 14.38148971
ECCENTRICITY   = .00166677
INCLINATION    = 74.0588
RA_OF_ASC_NODE = 168.0709
ARG_OF_PERICENTER = 278.8387
MEAN_ANOMALY   = 81.0879

EPHEMERIS_TYPE = 0
CLASSIFICATION_TYPE = U
NORAD_CAT_ID   = 8459
ELEMENT_SET_NO = 999
REV_AT_EPOCH   = 62021
BSTAR          = .96826977E-4
MEAN_MOTION_DOT = .268E-5
MEAN_MOTION_DDOT = 0

CCSDS_OMM_VERS = 2.0
CREATION_DATE  = 
ORIGINATOR     = 

OBJECT_NAME    = SL-3 R/B
OBJECT_ID      = 1977-057B
CENTER_NAME    = EARTH
REF_FRAME      = TEME
TIME_SYSTEM    = UTC
MEAN_ELEMENT_THEORY = SGP/SGP4

EPOCH          = 2025-12-18T14:13:17.972832
MEAN_MOTION    = 15.43081264
ECCENTRICITY   = .00068617
INCLINATION    = 97.5678
RA_OF_ASC_NODE = 156.1487
ARG_OF_PERICENTER = 208.6337
MEAN_ANOMALY   = 151.4535

EPHEMERIS_TYPE = 0
CLASSIFICATION_TYPE = U
NORAD_CAT_ID   = 10114
ELEMENT_SET_NO = 999
REV_AT_EPOCH   = 65581
BSTAR          = .22817567E-3
MEAN_MOTION_DOT = .1E-3
MEAN_MOTION_DDOT = 0

CCSDS_OMM_VERS = 2.0
CREATION_DATE  = 
ORIGINATOR     = 

OBJECT_NAME    = SEASAT 1
OBJECT_ID      = 1978-064A
CENTER_NAME    = EARTH
REF_FRAME      = TEME
TIME_SYSTEM    = UTC
MEAN_ELEMENT_THEORY = SGP/SGP4

EPOCH          = 2025-12-18T13:29:43.826784
MEAN_MOTION    = 14.46067748
ECCENTRICITY   = .00014769
INCLINATION    = 108.0125
RA_OF_ASC_NODE = 315.2498
ARG_OF_PERICENTER = 252.0179
MEAN_ANOMALY   = 108.0806

EPHEMERIS_TYPE = 0
CLASSIFICATION_TYPE = U
NORAD_CAT_ID   = 10967
ELEMENT_SET_NO = 999
REV_AT_EPOCH   = 49478
BSTAR          = .10579301E-3
MEAN_MOTION_DOT = .24E-5
MEAN_MOTION_DDOT = 0

CCSDS_OMM_VERS = 2.0
CREATION_DATE  = 
ORIGINATOR     = 

OBJECT_NAME    = SL-14 R/B
OBJECT_ID      = 1979-011B
CENTER_NAME    = EARTH
REF_FRAME      = TEME
TIME_SYSTEM    = UTC
MEAN_ELEMENT_THEORY = SGP/SGP4

EPOCH          = 2025-12-18T13:21:27.381888
MEAN_MOTION    = 14.91776377
ECCENTRICITY   = .00153829
INCLINATION    = 82.5232
RA_OF_ASC_NODE = 173.5273
ARG_OF_PERICENTER = 333.5760
MEAN_ANOMALY   = 26.4673

EPHEMERIS_TYPE = 0
CLASSIFICATION_TYPE = U
NORAD_CAT_ID   = 11267
ELEMENT_SET_NO = 999
REV_AT_EPOCH   = 51668
BSTAR          = .4793285E-4
MEAN_MOTION_DOT = .509E-5
MEAN_MOTION_DDOT = 0

CCSDS_OMM_VERS = 2.0
CREATION_DATE  = 
ORIGINATOR     = 

OBJECT_NAME    = SL-8 R/B
OBJECT_ID      = 1979-089B
CENTER_NAME    = EARTH
REF_FRAME      = TEME
TIME_SYSTEM    = UTC
MEAN_ELEMENT_THEORY = SGP/SGP4

EPOCH          = 2025-12-18T04:15:09.883008
MEAN_MOTION    = 14.42287313
ECCENTRICITY   = .00145642
INCLINATION    = 74.0686
RA_OF_ASC_NODE = 241.9158
ARG_OF_PERICENTER = 74.0158
MEAN_ANOMALY   = 286.2601

EPHEMERIS_TYPE = 0
CLASSIFICATION_TYPE = U
NORAD_CAT_ID   = 11574
ELEMENT_SET_NO = 999
REV_AT_EPOCH   = 42435
BSTAR          = .7680761E-4
MEAN_MOTION_DOT = .227E-5
MEAN_MOTION_DDOT = 0

CCSDS_OMM_VERS = 2.0
CREATION_DATE  = 
ORIGINATOR     = 

OBJECT_NAME    = SL-14 R/B
OBJECT_ID      = 1980-005B
CENTER_NAME    = EARTH
REF_FRAME      = TEME
TIME_SYSTEM    = UTC
MEAN_ELEMENT_THEORY = SGP/SGP4

EPOCH          = 2025-12-18T14:00:13.524768
MEAN_MOTION    = 14.90798288
ECCENTRICITY   = .00173165
INCLINATION    = 82.5145
RA_OF_ASC_NODE = 24.1570
ARG_OF_PERICENTER = 75.6972
MEAN_ANOMALY   = 284.6168

EPHEMERIS_TYPE = 0
CLASSIFICATION_TYPE = U
NORAD_CAT_ID   = 11672
ELEMENT_SET_NO = 999
REV_AT_EPOCH   = 46440
BSTAR          = .42846184E-4
MEAN_MOTION_DOT = .448E-5
MEAN_MOTION_DDOT = 0

CCSDS_OMM_VERS = 2.0
CREATION_DATE  = 
ORIGINATOR     = 

OBJECT_NAME    = SL-8 R/B
OBJECT_ID      = 1981-003B
CENTER_NAME    = EARTH
REF_FRAME      = TEME
TIME_SYSTEM    = UTC
MEAN_ELEMENT_THEORY = SGP/SGP4

EPOCH          = 2025-12-18T12:20:09.829824
MEAN_MOTION    = 15.07199987
ECCENTRICITY   = .02788673
INCLINATION    = 82.9307
RA_OF_ASC_NODE = 4.8896
ARG_OF_PERICENTER = 100.3812
MEAN_ANOMALY   = 262.8975

EPHEMERIS_TYPE = 0
CLASSIFICATION_TYPE = U
NORAD_CAT_ID   = 12139
ELEMENT_SET_NO = 999
REV_AT_EPOCH   = 30243
BSTAR          = .33460944E-3
MEAN_MOTION_DOT = .12662E-3
MEAN_MOTION_DDOT = 0

CCSDS_OMM_VERS = 2.0
CREATION_DATE  = 
ORIGINATOR     = 

OBJECT_NAME    = SL-3 R/B
OBJECT_ID      = 1981-046B
CENTER_NAME    = EARTH
REF_FRAME      = TEME
TIME_SYSTEM    = UTC
MEAN_ELEMENT_THEORY = SGP/SGP4

EPOCH          = 2025-12-18T14:36:10.432512
MEAN_MOTION    = 15.39723098
ECCENTRICITY   = .00184538
INCLINATION    = 81.2326
RA_OF_ASC_NODE = 26.9173
ARG_OF_PERICENTER = 303.1954
MEAN_ANOMALY   = 56.7517

EPHEMERIS_TYPE = 0
CLASSIFICATION_TYPE = U
NORAD_CAT_ID   = 12465
ELEMENT_SET_NO = 999
REV_AT_EPOCH   = 42594
BSTAR          = .21010616E-3
MEAN_MOTION_DOT = .8384E-4
MEAN_MOTION_DDOT = 0

CCSDS_OMM_VERS = 2.0
CREATION_DATE  = 
ORIGINATOR     = 

OBJECT_NAME    = SL-3 R/B
OBJECT_ID      = 1981-103B
CENTER_NAME    = EARTH
REF_FRAME      = TEME
TIME_SYSTEM    = UTC
MEAN_ELEMENT_THEORY = SGP/SGP4

EPOCH          = 2025-12-18T14:00:31.212576
MEAN_MOTION    = 15.20298186
ECCENTRICITY   = .00120776
INCLINATION    = 81.1591
RA_OF_ASC_NODE = 308.5086
ARG_OF_PERICENTER = 191.5315
MEAN_ANOMALY   = 168.5642

EPHEMERIS_TYPE = 0
CLASSIFICATION_TYPE = U
NORAD_CAT_ID   = 12904
ELEMENT_SET_NO = 999
REV_AT_EPOCH   = 96090
BSTAR          = .21488006E-3
MEAN_MOTION_DOT = .47E-4
MEAN_MOTION_DDOT = 0

CCSDS_OMM_VERS = 2.0
CREATION_DATE  = 
ORIGINATOR     = 

OBJECT_NAME    = SL-3 R/B
OBJECT_ID      = 1982-013B
CENTER_NAME    = EARTH
REF_FRAME      = TEME
TIME_SYSTEM    = UTC
MEAN_ELEMENT_THEORY = SGP/SGP4

EPOCH          = 2025-12-18T10:22:24.564000
MEAN_MOTION    = 15.21134011
ECCENTRICITY   = .00242191
INCLINATION    = 81.1752
RA_OF_ASC_NODE = 255.9460
ARG_OF_PERICENTER = 92.5704
MEAN_ANOMALY   = 267.8300

EPHEMERIS_TYPE = 0
CLASSIFICATION_TYPE = U
NORAD_CAT_ID   = 13068
ELEMENT_SET_NO = 999
REV_AT_EPOCH   = 39199
BSTAR          = .17749894E-3
MEAN_MOTION_DOT = .4008E-4
MEAN_MOTION_DDOT = 0

CCSDS_OMM_VERS = 2.0
CREATION_DATE  = 
ORIGINATOR     = 

OBJECT_NAME    = SL-3 R/B
OBJECT_ID      = 1982-039B
CENTER_NAME    = EARTH
REF_FRAME      = TEME
TIME_SYSTEM    = UTC
MEAN_ELEMENT_THEORY = SGP/SGP4

EPOCH          = 2025-12-18T14:31:12.806112
MEAN_MOTION    = 15.09558155
ECCENTRICITY   = .00294737
INCLINATION    = 81.1713
RA_OF_ASC_NODE = 309.3490
ARG_OF_PERICENTER = 232.3705
MEAN_ANOMALY   = 127.4845

EPHEMERIS_TYPE = 0
CLASSIFICATION_TYPE = U
NORAD_CAT_ID   = 13154
ELEMENT_SET_NO = 999
REV_AT_EPOCH   = 36940
BSTAR          = .13579838E-3
MEAN_MOTION_DOT = .2224E-4
MEAN_MOTION_DDOT = 0

