ATLAS CENTAUR R/B       
1 06155U 72065B   25352.53913073  .00000994  00000+0  13961-3 0  9999
2 06155  35.0020  61.2254 0033409  46.8895 313.4593 14.77424657829259
SL-8 R/B                
1 08459U 75112B   25352.60420941  .00000268  00000+0  96827-4 0  9996
2 08459  74.0588 168.0709 0016667 278.8387  81.0879 14.38148971620210
SL-3 R/B                
1 10114U 77057B   25352.59256913  .00010000  00000+0  22818-3 0  9994
2 10114  97.5678 156.1487 0006861 208.6337 151.4535 15.43081264655816
SEASAT 1                
1 10967U 78064A   25352.56231281  .00000240  00000+0  10579-3 0  9993
2 10967 108.0125 315.2498 0001476 252.0179 108.0806 14.46067748494780
SL-14 R/B               
1 11267U 79011B   25352.55656692  .00000509  00000+0  47933-4 0  9999
2 11267  82.5232 173.5273 0015382 333.5760  26.4673 14.91776377516681
SL-8 R/B                
1 11574U 79089B   25352.17719772  .00000227  00000+0  76808-4 0  9992
2 11574  74.0686 241.9158 0014564  74.0158 286.2601 14.42287313424354
SL-14 R/B               
1 11672U 80005B   25352.58348987  .00000448  00000+0  42846-4 0  9992
2 11672  82.5145  24.1570 0017316  75.6972 284.6168 14.90798288464406
SL-8 R/B                
1 12139U 81003B   25352.51400266  .00012662  00000+0  33461-3 0  9995
2 12139  82.9307   4.8896 0278867 100.3812 262.8975 15.07199987302432
SL-3 R/B                
1 12465U 81046B   25352.60845408  .00008384  00000+0  21011-3 0  9999
2 12465  81.2326  26.9173 0018453 303.1954  56.7517 15.39723098425948
SL-3 R/B                
1 12904U 81103B   25352.58369459  .00004700  00000+0  21488-3 0  9991
2 12904  81.1591 308.5086 0012077 191.5315 168.5642 15.20298186960903
SL-3 R/B                
1 13068U 82013B   25352.43222875  .00004008  00000+0  17750-3 0  9996
2 13068  81.1752 255.9460 0024219  92.5704 267.8300 15.21134011391996
SL-3 R/B                
1 13154U 82039B   25352.60500933  .00002224  00000+0  13580-3 0  9998
2 13154  81.1713 309.3490 0029473 232.3705 127.4845 15.09558155369409
